GLOBALSTAR M067         
1 32263U 07048A   26005.89098104 -.00000097  00000+0 -31488-6 0  9994
2 32263  51.9715 162.7966 0002051  77.9408  87.4871 12.40683944834647
GLOBALSTAR M070         
1 32264U 07048B   26006.33637233 -.00000057  00000+0  26324-3 0  9992
2 32264  51.9734 229.6238 0000807  75.7721  95.7821 12.62329084839328
GLOBALSTAR M066         
1 32265U 07048C   26006.19560951 -.00000102  00000+0 -65992-4 0  9996
2 32265  51.9579 162.9432 0005790  71.0677  99.9273 12.30384435840286
GLOBALSTAR M068         
1 32266U 07048D   26006.08003155 -.00000024  00000+0  44267-3 0  9996
2 32266  51.9901  43.7635 0001063 202.9564 181.1539 12.62837849843195
GLOBALSTAR M079         
1 37188U 10054A   26005.97679220 -.00000078  00000+0  14202-3 0  9999
2 37188  52.0024 242.4646 0001063  57.4378  47.5457 12.62269746702066
GLOBALSTAR M074         
1 37189U 10054B   26006.01065737 -.00000070  00000+0  19046-3 0  9991
2 37189  52.0001 241.6528 0001104  76.2837  62.1713 12.62265134702679
GLOBALSTAR M076         
1 37190U 10054C   26006.12241962 -.00000075  00000+0  16066-3 0  9995
2 37190  52.0017 241.5028 0001214  70.3225  95.4330 12.62268983702400
GLOBALSTAR M077         
1 37191U 10054D   26006.04379227 -.00000050  00000+0  50771-3 0  9997
2 37191  51.9949 231.1375 0001647  65.2029  84.9957 11.68177270702195
